{
  "type": "FeatureCollection",
  "features": [
    {
      "type": "Feature",
      "properties": {
        "norad_id": 66470,
        "name": "STARLINK-35655",
        "group": "last-30-days",
        "lat": -35.95243902458157,
        "lon": 0.7927795815518286,
        "alt_km": 380.6265529297825,
        "timestamp": "2025-12-02T17:49:10.799596+00:00",
        "meta_object_name": "STARLINK-35655",
        "meta_object_id": "2025-262Q",
        "meta_epoch": "2025-12-02T12:00:05.998752",
        "meta_mean_motion": 15.64300162,
        "meta_eccentricity": 0.0001625,
        "meta_inclination": 42.9993,
        "meta_ra_of_asc_node": 131.1301,
        "meta_arg_of_pericenter": 265.7884,
        "meta_mean_anomaly": 47.3111,
        "meta_ephemeris_type": 0,
        "meta_classification_type": "U",
        "meta_norad_cat_id": 66470,
        "meta_element_set_no": 999,
        "meta_rev_at_epoch": 399,
        "meta_bstar": -0.024611,
        "meta_mean_motion_dot": -0.02109922,
        "meta_mean_motion_ddot": 0,
        "tle_line1": "1 66470U 25262Q   25336.50006943 -.02109922  00000+0 -24611-1 0  9997",
        "tle_line2": "2 66470  42.9993 131.1301 0001625 265.7884  47.3111 15.64300162  3991"
      },
      "geometry": {
        "type": "Point",
        "coordinates": [
          0.7927795815518286,
          -35.95243902458157
        ]
      }
    },
    {
      "type": "Feature",
      "properties": {
        "norad_id": 66471,
        "name": "STARLINK-35569",
        "group": "last-30-days",
        "lat": -36.75296248273007,
        "lon": 2.948997577753205,
        "alt_km": 380.5947537742695,
        "timestamp": "2025-12-02T17:49:10.799606+00:00",
        "meta_object_name": "STARLINK-35569",
        "meta_object_id": "2025-262R",
        "meta_epoch": "2025-12-02T12:00:05.998752",
        "meta_mean_motion": 15.64299318,
        "meta_eccentricity": 0.0001643,
        "meta_inclination": 42.9992,
        "meta_ra_of_asc_node": 131.1254,
        "meta_arg_of_pericenter": 261.7561,
        "meta_mean_anomaly": 53.2596,
        "meta_ephemeris_type": 0,
        "meta_classification_type": "U",
        "meta_norad_cat_id": 66471,
        "meta_element_set_no": 999,
        "meta_rev_at_epoch": 399,
        "meta_bstar": -0.024576,
        "meta_mean_motion_dot": -0.02107268,
        "meta_mean_motion_ddot": 0,
        "tle_line1": "1 66471U 25262R   25336.50006943 -.02107268  00000+0 -24576-1 0  9999",
        "tle_line2": "2 66471  42.9992 131.1254 0001643 261.7561  53.2596 15.64299318  3999"
      },
      "geometry": {
        "type": "Point",
        "coordinates": [
          2.948997577753205,
          -36.75296248273007
        ]
      }
    },
    {
      "type": "Feature",
      "properties": {
        "norad_id": 66472,
        "name": "STARLINK-35567",
        "group": "last-30-days",
        "lat": -38.23156517727793,
        "lon": 7.390956863238664,
        "alt_km": 380.73523064956044,
        "timestamp": "2025-12-02T17:49:10.799618+00:00",
        "meta_object_name": "STARLINK-35567",
        "meta_object_id": "2025-262S",
        "meta_epoch": "2025-12-02T12:00:05.998752",
        "meta_mean_motion": 15.64297257,
        "meta_eccentricity": 0.0001617,
        "meta_inclination": 42.9991,
        "meta_ra_of_asc_node": 131.1156,
        "meta_arg_of_pericenter": 269.7206,
        "meta_mean_anomaly": 49.1327,
        "meta_ephemeris_type": 0,
        "meta_classification_type": "U",
        "meta_norad_cat_id": 66472,
        "meta_element_set_no": 999,
        "meta_rev_at_epoch": 399,
        "meta_bstar": -0.024592,
        "meta_mean_motion_dot": -0.02108263,
        "meta_mean_motion_ddot": 0,
        "tle_line1": "1 66472U 25262S   25336.50006943 -.02108263  00000+0 -24592-1 0  9994",
        "tle_line2": "2 66472  42.9991 131.1156 0001617 269.7206  49.1327 15.64297257  3991"
      },
      "geometry": {
        "type": "Point",
        "coordinates": [
          7.390956863238664,
          -38.23156517727793
        ]
      }
    },
    {
      "type": "Feature",
      "properties": {
        "norad_id": 66473,
        "name": "STARLINK-35568",
        "group": "last-30-days",
        "lat": -38.90433701616414,
        "lon": 9.669779996006342,
        "alt_km": 380.6305657172825,
        "timestamp": "2025-12-02T17:49:10.799628+00:00",
        "meta_object_name": "STARLINK-35568",
        "meta_object_id": "2025-262T",
        "meta_epoch": "2025-12-02T12:00:05.998752",
        "meta_mean_motion": 15.64288126,
        "meta_eccentricity": 0.0001742,
        "meta_inclination": 42.9992,
        "meta_ra_of_asc_node": 131.1104,
        "meta_arg_of_pericenter": 266.5287,
        "meta_mean_anomaly": 54.2371,
        "meta_ephemeris_type": 0,
        "meta_classification_type": "U",
        "meta_norad_cat_id": 66473,
        "meta_element_set_no": 999,
        "meta_rev_at_epoch": 399,
        "meta_bstar": -0.02434,
        "meta_mean_motion_dot": -0.02088877,
        "meta_mean_motion_ddot": 0,
        "tle_line1": "1 66473U 25262T   25336.50006943 -.02088877  00000+0 -24340-1 0  9994",
        "tle_line2": "2 66473  42.9992 131.1104 0001742 266.5287  54.2371 15.64288126  3990"
      },
      "geometry": {
        "type": "Point",
        "coordinates": [
          9.669779996006342,
          -38.90433701616414
        ]
      }
    },
    {
      "type": "Feature",
      "properties": {
        "norad_id": 66474,
        "name": "STARLINK-35620",
        "group": "last-30-days",
        "lat": -39.535455058247564,
        "lon": 12.004802781995608,
        "alt_km": 380.76855715344664,
        "timestamp": "2025-12-02T17:49:10.799640+00:00",
        "meta_object_name": "STARLINK-35620",
        "meta_object_id": "2025-262U",
        "meta_epoch": "2025-12-02T12:00:05.998752",
        "meta_mean_motion": 15.64297121,
        "meta_eccentricity": 0.0001554,
        "meta_inclination": 42.9995,
        "meta_ra_of_asc_node": 131.1057,
        "meta_arg_of_pericenter": 267.0031,
        "meta_mean_anomaly": 55.6796,
        "meta_ephemeris_type": 0,
        "meta_classification_type": "U",
        "meta_norad_cat_id": 66474,
        "meta_element_set_no": 999,
        "meta_rev_at_epoch": 399,
        "meta_bstar": -0.024523,
        "meta_mean_motion_dot": -0.02103055,
        "meta_mean_motion_ddot": 0,
        "tle_line1": "1 66474U 25262U   25336.50006943 -.02103055  00000+0 -24523-1 0  9994",
        "tle_line2": "2 66474  42.9995 131.1057 0001554 267.0031  55.6796 15.64297121  3996"
      },
      "geometry": {
        "type": "Point",
        "coordinates": [
          12.004802781995608,
          -39.535455058247564
        ]
      }
    },
    {
      "type": "Feature",
      "properties": {
        "norad_id": 66475,
        "name": "STARLINK-35538",
        "group": "last-30-days",
        "lat": -40.11756697457274,
        "lon": 14.379659089026918,
        "alt_km": 380.7262416690719,
        "timestamp": "2025-12-02T17:49:10.799652+00:00",
        "meta_object_name": "STARLINK-35538",
        "meta_object_id": "2025-262V",
        "meta_epoch": "2025-12-02T12:00:05.998752",
        "meta_mean_motion": 15.64299796,
        "meta_eccentricity": 0.0001633,
        "meta_inclination": 42.9989,
        "meta_ra_of_asc_node": 131.1012,
        "meta_arg_of_pericenter": 266.1492,
        "meta_mean_anomaly": 58.4527,
        "meta_ephemeris_type": 0,
        "meta_classification_type": "U",
        "meta_norad_cat_id": 66475,
        "meta_element_set_no": 999,
        "meta_rev_at_epoch": 399,
        "meta_bstar": -0.024603,
        "meta_mean_motion_dot": -0.02109284,
        "meta_mean_motion_ddot": 0,
        "tle_line1": "1 66475U 25262V   25336.50006943 -.02109284  00000+0 -24603-1 0  9994",
        "tle_line2": "2 66475  42.9989 131.1012 0001633 266.1492  58.4527 15.64299796  3993"
      },
      "geometry": {
        "type": "Point",
        "coordinates": [
          14.379659089026918,
          -40.11756697457274
        ]
      }
    },
    {
      "type": "Feature",
      "properties": {
        "norad_id": 66476,
        "name": "STARLINK-35372",
        "group": "last-30-days",
        "lat": -40.64860181049313,
        "lon": 16.781881445434088,
        "alt_km": 380.72570742753305,
        "timestamp": "2025-12-02T17:49:10.799662+00:00",
        "meta_object_name": "STARLINK-35372",
        "meta_object_id": "2025-262W",
        "meta_epoch": "2025-12-02T12:00:05.998752",
        "meta_mean_motion": 15.64288888,
        "meta_eccentricity": 0.000168,
        "meta_inclination": 42.9991,
        "meta_ra_of_asc_node": 131.096,
        "meta_arg_of_pericenter": 268.6198,
        "meta_mean_anomaly": 57.8995,
        "meta_ephemeris_type": 0,
        "meta_classification_type": "U",
        "meta_norad_cat_id": 66476,
        "meta_element_set_no": 999,
        "meta_rev_at_epoch": 388,
        "meta_bstar": -0.024387,
        "meta_mean_motion_dot": -0.02092443,
        "meta_mean_motion_ddot": 0,
        "tle_line1": "1 66476U 25262W   25336.50006943 -.02092443  00000+0 -24387-1 0  9992",
        "tle_line2": "2 66476  42.9991 131.0960 0001680 268.6198  57.8995 15.64288888  3880"
      },
      "geometry": {
        "type": "Point",
        "coordinates": [
          16.781881445434088,
          -40.64860181049313
        ]
      }
    }
  ]
}